#cP2023  9 10  0  0  0.00000000      96 ORBIT IGS20 HLM  IGS
## 2279      0.00000000   900.00000000 60197 0.0000000000000
+   32   G01G02G03G04G05G06G07G08G09G10G11G12G13G14G15G16G17
+        G18G19G20G21G22G23G24G25G26G27G28G29G30G31G32  0  0
+          0  0  0  0  0  0  0  0  0  0  0  0  0  0  0  0  0
+          0  0  0  0  0  0  0  0  0  0  0  0  0  0  0  0  0
+          0  0  0  0  0  0  0  0  0  0  0  0  0  0  0  0  0
++         2  2  2  2  2  2  2  2  2  2  2  2  2  2  2  2  2
++         3  2  2  2  1  2  2  2  1  2  2  2  2  2  2  0  0
++         0  0  0  0  0  0  0  0  0  0  0  0  0  0  0  0  0
++         0  0  0  0  0  0  0  0  0  0  0  0  0  0  0  0  0
++         0  0  0  0  0  0  0  0  0  0  0  0  0  0  0  0  0
%c G  cc GPS ccc cccc cccc cccc cccc ccccc ccccc ccccc ccccc
%c cc cc ccc ccc cccc cccc cccc cccc ccccc ccccc ccccc ccccc
%f  1.2500000  1.025000000  0.00000000000  0.000000000000000
%f  0.0000000  0.000000000  0.00000000000  0.000000000000000
%i    0    0    0    0      0      0      0      0         0
%i    0    0    0    0      0      0      0      0         0
/* RAPID ORBIT COMBINATION FROM WEIGHTED AVERAGE OF:        
/* cod emr esa gfz grg jgx jpl ngs sio usn whu              
/* REFERENCED TO IGS TIME (IGST) AND TO WEIGHTED MEAN POLE: 
/* PCV:IGS20      OL/AL:FES2014b NONE     Y  ORB:CMB CLK:CMB
*  2023  9 10  0 45  0.00000000
PG01 -16461.179349 -13986.172621 -16023.407690    165.890388  7  7  8 152       
PG02 -10031.135668 -14427.205313 -19468.595086   -555.783318  7  7  6 133       
PG03 -12597.446590 -22536.940379   6328.093795   -143.624796  6  5  7 110       
PG04  -8675.896429 -12778.313481  21603.665020    151.354173  6  6  6 144       
PG05   4219.124081  24819.946829   8120.104877   -142.112044  8  4  4 106       
PG06 -20339.178107   6713.713224  15830.790930    552.982914  5  8  6 146       
PG07 -26027.766269  -6267.193284   2135.982957     71.645088  8  5  7 143       
PG08    173.693193 -19927.439785 -17434.254439   -141.451798  7  6  4 121       
PG09 -15808.156624  -3872.977517  20913.658590    -63.975253  7  5  6 155       
PG10  13708.740469  -5345.341960 -21927.657743    -52.753725  5  6  5 157       
PG11  -7404.411456  13603.637743  21583.733914   -361.163006  7  7  6 147       
PG12   9056.574897  24823.002731   2798.653005   -422.944677  7  6  5 132       
PG13 -10066.508561  20898.196294 -12932.727192    570.633480  6  7  5 143       
PG14 -15629.812896   1705.872050 -21397.466775    180.187375  5  4  6 117       
PG15   3357.341543  19669.602020 -17897.824869     76.003119  6  4  3  98       
PG16   2314.931334 -23299.677517  11785.062569   -456.430304  6  4  6 110       
PG17 -21196.731377  11364.584845 -10954.674742    723.636256  7  4  4 148       
PG18  26241.451248   4620.283294   -846.259038   -412.038234 10  7  5 142       
PG19 -20666.420953  15928.498036  -4063.629914    369.363423  6  3  6 139       
PG20  -3028.908062  19917.456374  17438.803537    412.703171  4  5  7 124       
PG21  -7990.244720 -14857.844947 -20202.280088    149.215619  7  5  6 131       
PG22 -12386.192054   9989.734124 -20850.112654    124.882481  7  4  3 136       
PG23  16935.410726   8250.644604 -18788.667677     66.255093  6  4  5 142       
PG24  12607.165815  14883.738025 -18581.698232   -314.985619  6  5  4 105       
PG25  16374.936672  15627.241141  13791.410229    466.918046  4  7  6 139       
PG26   8438.428913 -16047.192071  19175.125740    229.247939  5  4  4 114       
PG27  11113.170885 -22425.090509  -8494.067918    -36.845321  7  3  5 133       
PG28  21595.878122  -6693.724170  13917.344109     -7.696465  6  7  7 156       
PG29  15427.353007   4691.935347  21079.615749   -609.103206  4  6  6 127       
PG30 -25430.566499   1200.744029  -7908.858428   -489.173247  9  6  5 153       
PG31  13500.340749 -11505.343581  19707.146799   -223.146466  5  6  4 121       
PG32  19978.998960 -15251.584718  -8075.271510   -555.346696  6  5  7 149       
*  2023  9 10  1  0  0.00000000
PG01 -14607.704761 -13764.819828 -17910.903035    165.889488  7  7  8 148       
PG02  -7646.288359 -14366.826547 -20524.729858   -555.779071  7  7  6 134       
PG03 -12634.986848 -23142.794598   3513.734136   -143.606579  6  5  7 119       
PG04  -7057.217728 -14602.208368  21018.600397    151.364265  6  6  5 136       
PG05   3559.172263  23907.857600  10711.192051   -142.113319  7  4  4 102       
PG06 -21969.285708   6335.455885  13658.215626    552.977082  6  7  6 146       
PG07 -25650.027224  -6454.463545   4906.470592     71.635939  8  5  7 137       
PG08   1456.959183 -21329.927592 -15574.253420   -141.452558  7  6  4 135       
PG09 -14378.720853  -5855.085852  21470.424547    -63.966018  7  5  6 160       
PG10  14650.946359  -2992.284282 -21794.740513    -52.754930  4  5  5 155       
PG11  -9778.240893  13080.632641  20948.012532   -361.179386  7  7  6 154       
PG12   8883.624578  25073.713832    -53.771858   -422.948441  7  5  4 126       
PG13 -11159.239678  21663.968033 -10492.395857    570.637314  7  7  5 148       
PG14 -16415.431249   -589.748697 -20878.161461    180.197718  5  4  6 120       
PG15   2236.663417  21197.717476 -16178.926939     76.006604  6  4  3 106       
PG16   2981.790675 -21890.039868  14095.925665   -456.425362  5  4  5 113       
PG17 -20371.094959  10161.854007 -13338.336619    723.636656  7  5  4 142       
PG18  26142.820583   4809.755780   2024.751199   -412.049694 10  7  5 143       
PG19 -20412.312047  15327.185250  -6869.805171    369.367857  6  3  6 133       
PG20  -4234.775437  18225.480015  18957.657097    412.701330  4  5  6 117       
PG21  -5543.413873 -14759.094545 -20976.570955    149.214893  7  5  6 136       
PG22 -13135.093860   7594.403567 -21359.594429    124.876178  7  4  4 137       
PG23  17642.071169  10175.536779 -17137.036882     66.259767  7  4  5 141       
PG24  10480.037581  14891.133759 -19841.605696   -314.995383  6  5  4 100       
PG25  16741.886679  17083.729620  11509.044346    466.919870  4  7  6 131       
PG26   9565.081008 -14041.623943  20217.380916    229.246354  4  5  4 108       
PG27  11802.245105 -22894.566056  -5762.323112    -36.850966  6  3  5 131       
PG28  23027.614187  -6328.627268  11604.308700     -7.700931  7  7  7 162       
PG29  13796.912573   6523.792137  21702.543426   -609.103559  5  5  6 117       
PG30 -26142.398658    796.318496  -5254.881691   -489.170287  9  6  5 169       
PG31  15656.041706 -11028.424685  18389.959471   -223.146771  5  6  4 116       
PG32  19501.633457 -14228.682028 -10659.658908   -555.352322  6  5  7 149       
*  2023  9 10  1 15  0.00000000
PG01 -12551.490579 -13631.363513 -19501.715093    165.888589  7  6  7 144       
PG02  -5157.272530 -14430.571952 -21212.722743   -555.775115  7  7  5 128       
PG03 -12570.327304 -23452.985977    639.152961   -143.588402  6  5  7 114       
PG04  -5587.819180 -16439.970799  20071.386843    151.374333  6  6  5 122       
PG05   2718.260846  22779.586905  13115.370217   -142.114286  7  4  4  94       
PG06 -23360.457282   6074.756635  11252.514145    552.971210  6  7  7 149       
PG07 -24981.081886  -6631.251030   7595.704832     71.626245  8  5  7 124       
PG08   2544.886736 -22607.926818 -13442.923547   -141.453202  7  6  4 132       
PG09 -13029.142039  -7943.413739  21655.049544    -63.956761  6  5  5 162       
PG10  15703.372832   -730.863396 -21281.315836    -52.756535  4  5  4 152       
PG11 -12085.346431  12696.245061  19951.914436   -361.195765  8  7  6 159       
PG12   8610.188451  25031.526588  -2905.300834   -422.952500  6  5  4 131       
PG13 -12016.460765  22276.603544  -7870.927850    570.641567  7  6  5 149       
PG14 -17283.139714  -2769.103413 -19999.806951    180.208018  5  5  6 108       
PG15   1280.318819  22596.382563 -14187.808422     76.009585  6  3  2 104       
PG16   3806.459021 -20279.966257  16154.261950   -456.420573  4  4  5 101       
PG17 -19449.560673   8709.441618 -15487.817440    723.637052  7  5  4 138       
PG18  25734.172913   4971.285244   4861.293820   -412.061128  9  7  5 141       
PG19 -19984.501362  14479.070789  -9556.074565    369.372436  6  4  6 128       
PG20  -5613.067785  16470.435586  20153.070476    412.699430  4  5  6 129       
PG21  -3016.843327 -14787.055146 -21376.602621    149.214341  7  5  5 134       
PG22 -14019.378848   5202.820016 -21486.223569    124.869254  7  5  4 135       
PG23  18360.892943  11876.321205 -15192.374529     66.264417  7  4  5 142       
PG24   8232.688520  15003.964297 -20773.946511   -315.005124  6  5  3  93       
PG25  17065.764881  18273.436816   9028.219757    466.921651  4  7  5 130       
PG26  10830.753681 -12007.577808  20905.737261    229.244789  3  5  4 104       
PG27  12288.000139 -23137.753672  -2929.557217    -36.856673  5  2  4 131       
PG28  24203.344036  -6052.970987   9091.360297     -7.705358  7  7  7 166       
PG29  12236.381191   8480.675316  21950.830717   -609.103797  6  5  6 109       
PG30 -26570.988154    456.718770  -2511.625791   -489.167279  9  6  5 165       
PG31  17663.187019 -10682.313282  16755.950568   -223.147622  6  6  4 113       
PG32  18917.015886 -12947.240144 -13057.005229   -555.357933  6  5  7 148       
EOF
